OBJECT_NAME,OBJECT_ID,EPOCH,MEAN_MOTION,ECCENTRICITY,INCLINATION,RA_OF_ASC_NODE,ARG_OF_PERICENTER,MEAN_ANOMALY,EPHEMERIS_TYPE,CLASSIFICATION_TYPE,NORAD_CAT_ID,ELEMENT_SET_NO,REV_AT_EPOCH,BSTAR,MEAN_MOTION_DOT,MEAN_MOTION_DDOT
BEIDOU-3S IGSO-1S (C31),2015-019A,2026-06-07T20:42:15.018912,1.00252763,.0038597,49.2147,295.5748,191.2136,172.2668,0,U,40549,999,4098,0,-.167E-5,0
GPS BIIF-10 (PRN 08),2015-033A,2026-06-07T05:58:44.683392,2.00556798,.0115033,53.9903,267.4965,30.1862,330.4957,0,U,40730,999,7979,0,-.3E-6,0
BEIDOU-3S M2S (C58),2015-037A,2026-06-05T12:15:02.466144,1.86232430,.00078837,54.8818,302.4477,262.1990,97.7004,0,U,40748,999,7390,0,-.55E-6,0
BEIDOU-3S M1S (C57),2015-037B,2026-06-06T19:01:59.367072,1.86254904,.0003632,54.8774,302.3918,60.7446,299.2833,0,U,40749,999,7393,0,-.54E-6,0
GSAT0205 (GALILEO 9),2015-045A,2026-05-24T07:17:44.873376,1.67409242,.00064058,54.9357,222.4171,263.0112,96.9692,0,U,40889,999,6656,0,-.14E-6,0
GSAT0206 (GALILEO 10),2015-045B,2026-06-06T07:29:34.699488,1.70474019,.00017129,54.9476,221.9050,337.7692,22.3083,0,U,40890,999,6685,0,.41E-6,0
BEIDOU-3S IGSO-2S (C56),2015-053A,2026-06-07T20:11:58.240320,1.00261612,.0065022,49.2368,258.8953,191.8568,204.1208,0,U,40938,999,3926,0,-.145E-5,0
GPS BIIF-11 (PRN 10),2015-062A,2026-06-07T07:20:05.993088,2.00567051,.0111618,56.9527,31.1920,231.1505,127.9002,0,U,41019,999,7763,0,-.66E-6,0
GSAT-15 (GAGAN/PRN 139),2015-065A,2026-06-07T19:22:21.896832,1.00271334,.0004009,0.0486,113.5514,324.9922,201.7692,0,U,41028,999,3870,0,-.243E-5,0
GSAT0209 (GALILEO 12),2015-079A,2026-06-05T07:22:08.047776,1.70473904,.00054406,55.8207,101.5878,339.2511,20.6937,0,U,41174,999,6457,0,.19E-6,0
GSAT0208 (GALILEO 11),2015-079B,2026-06-06T16:48:42.251328,1.70473667,.0005249,55.8201,101.5466,332.4167,27.5281,0,U,41175,999,6501,0,.24E-6,0
IRNSS-1E,2016-003A,2026-06-07T15:40:03.565920,1.00269529,.0017905,33.2144,59.8883,179.4618,3.4375,0,U,41241,999,3798,0,-.294E-5,0
GPS BIIF-12 (PRN 32),2016-007A,2026-06-04T21:40:06.394656,2.00552419,.00963109,55.5169,89.9466,247.3906,111.5783,0,U,41328,999,7559,0,.4E-7,0
COSMOS 2514 (751),2016-008A,2026-06-06T23:04:29.540928,2.13102762,.001088,65.0283,313.3575,197.3828,162.5771,0,U,41330,999,8040,0,-.29E-6,0
BEIDOU-2 IGSO-6 (C13),2016-021A,2026-06-06T00:20:02.745024,1.00261920,.00572211,60.2097,38.1520,231.5167,83.2996,0,U,41434,999,3736,0,-.145E-5,0
IRNSS-1G,2016-027A,2026-06-07T19:10:35.289984,1.00270887,.0007477,5.1751,97.6903,352.5341,223.2052,0,U,41469,999,3708,0,-.318E-5,0
GSAT0211 (GALILEO 14),2016-030A,2026-06-05T15:37:56.898336,1.70474112,.00026783,55.0990,222.0126,329.1456,30.9257,0,U,41549,999,6247,0,.41E-6,0
GSAT0210 (GALILEO 13),2016-030B,2026-06-04T17:39:04.366080,1.70474170,.00030152,55.0978,222.0357,229.1415,130.9222,0,U,41550,999,6245,0,.41E-6,0
BEIDOU-2 G7 (C03),2016-037A,2026-06-07T20:47:51.980640,1.00269595,.0007304,1.6962,69.2415,2.0999,247.4401,0,U,41586,999,679,0,-.338E-5,0
EUTELSAT 117 WEST B (WAAS/PRN 131),2016-038B,2026-06-07T12:52:16.249152,1.00272357,.0000635,0.0038,134.8413,222.8867,334.2645,0,U,41589,999,3656,0,.3E-7,0
GSAT0207 (GALILEO 15),2016-069A,2026-06-05T14:24:23.946624,1.70473771,.00054837,55.4919,101.4069,326.6473,33.2866,0,U,41859,999,5920,0,.19E-6,0
GSAT0212 (GALILEO 16),2016-069B,2026-06-06T00:58:02.680320,1.70473908,.00046811,55.4899,101.3899,354.1097,5.8552,0,U,41860,999,5946,0,.21E-6,0
GSAT0213 (GALILEO 17),2016-069C,2026-06-05T05:37:31.460160,1.70474348,.00052095,55.4909,101.4200,311.1245,48.7972,0,U,41861,999,5931,0,.17E-6,0
GSAT0214 (GALILEO 18),2016-069D,2026-06-06T13:17:24.821664,1.70473962,.00043106,55.4911,101.3760,318.2994,41.6400,0,U,41862,999,5946,0,.23E-6,0
SES-15 (WAAS/PRN 133),2017-026A,2026-06-07T17:56:47.569056,1.00269352,.0000545,0.0203,329.2014,92.4655,334.5318,0,U,42709,999,733,0,.75E-6,0
QZS-2 (QZSS/PRN 194),2017-028A,2026-06-07T06:58:38.717760,1.00286598,.0760597,39.4423,243.3005,269.1530,349.1736,0,U,42738,999,752,0,-.151E-5,0
QZS-3 (QZSS/PRN 199),2017-048A,2026-06-07T19:09:50.361984,1.00270116,.000273,0.0573,185.1420,260.7848,224.7616,0,U,42917,999,3216,0,-.333E-5,0
COSMOS 2522 (752),2017-055A,2026-06-07T06:26:41.027424,2.13102039,.0010566,64.0780,192.2221,239.6526,120.3101,0,U,42939,999,6776,0,.86E-6,0
QZS-4 (QZSS/PRN 195),2017-062A,2026-06-07T08:54:53.639424,1.00254196,.0744946,40.1143,343.6087,271.5683,272.0991,0,U,42965,999,3170,0,-.311E-5,0
BEIDOU-3 M1 (C19),2017-069A,2026-06-05T20:34:01.229952,1.86231597,.00107903,56.6823,63.4582,323.7021,36.2527,0,U,43001,999,5839,0,-.38E-6,0
BEIDOU-3 M2 (C20),2017-069B,2026-06-06T20:52:12.367776,1.86231086,.000937,56.6831,63.4601,348.1510,11.8549,0,U,43002,999,5840,0,-.38E-6,0
